{
  "links" : {
    "next" : "https://api.nasa.gov/neo/rest/v1/feed?start_date=2007-10-23&end_date=2007-10-23&detailed=true&api_key=t0TVs3DtDT2H8Oy2Zy8m2eVrNsAVKAexjcZXUckd",
    "prev" : "https://api.nasa.gov/neo/rest/v1/feed?start_date=2007-10-21&end_date=2007-10-21&detailed=true&api_key=t0TVs3DtDT2H8Oy2Zy8m2eVrNsAVKAexjcZXUckd",
    "self" : "https://api.nasa.gov/neo/rest/v1/feed?start_date=2007-10-22&end_date=2007-10-22&detailed=true&api_key=t0TVs3DtDT2H8Oy2Zy8m2eVrNsAVKAexjcZXUckd"
  },
  "element_count" : 13,
  "near_earth_objects" : {
    "2007-10-22" : [ {
      "links" : {
        "self" : "https://api.nasa.gov/neo/rest/v1/neo/3392084?api_key=t0TVs3DtDT2H8Oy2Zy8m2eVrNsAVKAexjcZXUckd"
      },
      "neo_reference_id" : "3392084",
      "name" : "(2007 VG)",
      "nasa_jpl_url" : "http://ssd.jpl.nasa.gov/sbdb.cgi?sstr=3392084",
      "absolute_magnitude_h" : 21.0,
      "estimated_diameter" : {
        "kilometers" : {
          "estimated_diameter_min" : 0.1677084622,
          "estimated_diameter_max" : 0.3750075218
        },
        "meters" : {
          "estimated_diameter_min" : 167.7084621628,
          "estimated_diameter_max" : 375.0075217981
        },
        "miles" : {
          "estimated_diameter_min" : 0.1042091748,
          "estimated_diameter_max" : 0.2330187988
        },
        "feet" : {
          "estimated_diameter_min" : 550.2246310023,
          "estimated_diameter_max" : 1230.3396778159
        }
      },
      "is_potentially_hazardous_asteroid" : true,
      "close_approach_data" : [ {
        "close_approach_date" : "2007-10-22",
        "epoch_date_close_approach" : 1193036400000,
        "relative_velocity" : {
          "kilometers_per_second" : "31.5422177339",
          "kilometers_per_hour" : "113551.9838420839",
          "miles_per_hour" : "70556.7868489882"
        },
        "miss_distance" : {
          "astronomical" : "0.1523095305",
          "lunar" : "59.2484092712",
          "kilometers" : "22785182",
          "miles" : "14158056"
        },
        "orbiting_body" : "Earth"
      } ],
      "orbital_data" : {
        "orbit_id" : "15",
        "orbit_determination_date" : "2017-04-06 09:05:27",
        "orbit_uncertainty" : "7",
        "minimum_orbit_intersection" : ".00787483",
        "jupiter_tisserand_invariant" : "3.238",
        "epoch_osculation" : "2458000.5",
        "eccentricity" : ".6644071800761759",
        "semi_major_axis" : "1.954128756739944",
        "inclination" : "51.1372184611193",
        "ascending_node_longitude" : "33.4217883569677",
        "orbital_period" : "997.7648278543817",
        "perihelion_distance" : ".6557915799685943",
        "perihelion_argument" : "261.5544301459317",
        "aphelion_distance" : "3.252465933511294",
        "perihelion_time" : "2458330.636380379234",
        "mean_anomaly" : "240.8846597728841",
        "mean_motion" : ".3608064645595425",
        "equinox" : "J2000"
      }
    }, {
      "links" : {
        "self" : "https://api.nasa.gov/neo/rest/v1/neo/3392310?api_key=t0TVs3DtDT2H8Oy2Zy8m2eVrNsAVKAexjcZXUckd"
      },
      "neo_reference_id" : "3392310",
      "name" : "(2007 VN3)",
      "nasa_jpl_url" : "http://ssd.jpl.nasa.gov/sbdb.cgi?sstr=3392310",
      "absolute_magnitude_h" : 21.4,
      "estimated_diameter" : {
        "kilometers" : {
          "estimated_diameter_min" : 0.1394938229,
          "estimated_diameter_max" : 0.3119176705
        },
        "meters" : {
          "estimated_diameter_min" : 139.4938229344,
          "estimated_diameter_max" : 311.9176705226
        },
        "miles" : {
          "estimated_diameter_min" : 0.0866774163,
          "estimated_diameter_max" : 0.1938165949
        },
        "feet" : {
          "estimated_diameter_min" : 457.6569140361,
          "estimated_diameter_max" : 1023.3519701574
        }
      },
      "is_potentially_hazardous_asteroid" : true,
      "close_approach_data" : [ {
        "close_approach_date" : "2007-10-22",
        "epoch_date_close_approach" : 1193036400000,
        "relative_velocity" : {
          "kilometers_per_second" : "16.8770903781",
          "kilometers_per_hour" : "60757.5253611323",
          "miles_per_hour" : "37752.3634667547"
        },
        "miss_distance" : {
          "astronomical" : "0.135386106",
          "lunar" : "52.6651954651",
          "kilometers" : "20253474",
          "miles" : "12584925"
        },
        "orbiting_body" : "Earth"
      } ],
      "orbital_data" : {
        "orbit_id" : "11",
        "orbit_determination_date" : "2017-04-06 09:05:23",
        "orbit_uncertainty" : "7",
        "minimum_orbit_intersection" : ".028653",
        "jupiter_tisserand_invariant" : "3.353",
        "epoch_osculation" : "2458000.5",
        "eccentricity" : ".5768761815035125",
        "semi_major_axis" : "2.243342474908598",
        "inclination" : "15.61313817173619",
        "ascending_node_longitude" : "21.94674378044455",
        "orbital_period" : "1227.274740464846",
        "perihelion_distance" : ".9492116341786869",
        "perihelion_argument" : "320.25928295",
        "aphelion_distance" : "3.53747331563851",
        "perihelion_time" : "2458047.837717379886",
        "mean_anomaly" : "346.1142923463867",
        "mean_motion" : ".2933328521563521",
        "equinox" : "J2000"
      }
    }, {
      "links" : {
        "self" : "https://api.nasa.gov/neo/rest/v1/neo/2002340?api_key=t0TVs3DtDT2H8Oy2Zy8m2eVrNsAVKAexjcZXUckd"
      },
      "neo_reference_id" : "2002340",
      "name" : "2340 Hathor (1976 UA)",
      "nasa_jpl_url" : "http://ssd.jpl.nasa.gov/sbdb.cgi?sstr=2002340",
      "absolute_magnitude_h" : 20.2,
      "estimated_diameter" : {
        "kilometers" : {
          "estimated_diameter_min" : 0.2424124811,
          "estimated_diameter_max" : 0.5420507863
        },
        "meters" : {
          "estimated_diameter_min" : 242.4124811008,
          "estimated_diameter_max" : 542.0507863358
        },
        "miles" : {
          "estimated_diameter_min" : 0.1506280858,
          "estimated_diameter_max" : 0.3368146392
        },
        "feet" : {
          "estimated_diameter_min" : 795.3165644948,
          "estimated_diameter_max" : 1778.3819018419
        }
      },
      "is_potentially_hazardous_asteroid" : true,
      "close_approach_data" : [ {
        "close_approach_date" : "2007-10-22",
        "epoch_date_close_approach" : 1193036400000,
        "relative_velocity" : {
          "kilometers_per_second" : "15.069399215",
          "kilometers_per_hour" : "54249.8371740882",
          "miles_per_hour" : "33708.7391040883"
        },
        "miss_distance" : {
          "astronomical" : "0.0599836679",
          "lunar" : "23.3336467743",
          "kilometers" : "8973429",
          "miles" : "5575830"
        },
        "orbiting_body" : "Earth"
      } ],
      "orbital_data" : {
        "orbit_id" : "60",
        "orbit_determination_date" : "2014-10-24 19:08:05",
        "orbit_uncertainty" : "0",
        "minimum_orbit_intersection" : ".00687373",
        "jupiter_tisserand_invariant" : "6.882",
        "epoch_osculation" : "2453228.5",
        "eccentricity" : ".4498841655895494",
        "semi_major_axis" : ".8438292455376517",
        "inclination" : "5.854591233229053",
        "ascending_node_longitude" : "211.5421370750162",
        "orbital_period" : "283.1263476642372",
        "perihelion_distance" : ".4642038295088863",
        "perihelion_argument" : "39.92629416655726",
        "aphelion_distance" : "1.223454661566417",
        "perihelion_time" : "2453195.386460219392",
        "mean_anomaly" : "42.10443294792183",
        "mean_motion" : "1.271517126434761",
        "equinox" : "J2000"
      }
    } ]
  }
}